Delivered-To: ivangayton@gmail.com
Received: by 10.25.22.69 with SMTP id m66csp575914lfi;
        Sun, 19 Jul 2015 04:55:23 -0700 (PDT)
X-Received: by 10.70.135.104 with SMTP id pr8mr46954182pdb.129.1437305292194;
        Sun, 19 Jul 2015 04:28:12 -0700 (PDT)
Return-Path: <horizons@ssd.jpl.nasa.gov>
Received: from ssd.jpl.nasa.gov (ssd.jpl.nasa.gov. [128.149.23.134])
        by mx.google.com with ESMTPS id dd6si28490803pdb.8.2015.07.19.04.28.11
        for <ivangayton@gmail.com>
        (version=TLSv1 cipher=RC4-SHA bits=128/128);
        Sun, 19 Jul 2015 04:28:12 -0700 (PDT)
Received-SPF: pass (google.com: best guess record for domain of horizons@ssd.jpl.nasa.gov designates 128.149.23.134 as permitted sender) client-ip=128.149.23.134;
Authentication-Results: mx.google.com;
       spf=pass (google.com: best guess record for domain of horizons@ssd.jpl.nasa.gov designates 128.149.23.134 as permitted sender) smtp.mail=horizons@ssd.jpl.nasa.gov
Received: from ssd.jpl.nasa.gov (localhost.localdomain [127.0.0.1])
	by ssd.jpl.nasa.gov (8.13.8/8.13.8) with ESMTP id t6JBSAO6029333
	for <ivangayton@gmail.com>; Sun, 19 Jul 2015 04:28:10 -0700
Received: (from horizons@localhost)
	by ssd.jpl.nasa.gov (8.13.8/8.13.8/Submit) id t6JBSA7g029331
	for ivangayton@gmail.com; Sun, 19 Jul 2015 04:28:10 -0700
Date: Sun, 19 Jul 2015 04:28:10 -0700
From: Horizons Ephemeris System <horizons@ssd.jpl.nasa.gov>
Message-Id: <201507191128.t6JBSA7g029331@ssd.jpl.nasa.gov>
Subject: MAJOR BODY #C(500@0)_T(652) (1/1)

 Automated mail xmit by MAIL_REQUEST, PID=   20220 Sun Jul 19 04:28:10 2015
++++++++++++++++++++++++++++++++ (part 1 of 1)  +++++++++++++++++++++++++++++++

*******************************************************************************
 Revised: Aug 11, 2014             Tarqeq / (Saturn)                        652

 Newly discovered irregular Saturnian satellite.
*******************************************************************************
 
 
*******************************************************************************
Ephemeris / MAIL_REQUEST Sun Jul 19 04:28:10 2015 Pasadena, USA  / Horizons    
*******************************************************************************
Target body name: Tarqeq (652)                    {source: SAT368}
Center body name: Solar System Barycenter (0)     {source: DE-0431LE-0431}
Center-site name: BODY CENTER
*******************************************************************************
Start time      : A.D. 2015-Jul-19 00:00:00.0000 CT 
Stop  time      : A.D. 2015-Jul-19 00:00:00.0000 CT 
Step-size       : DISCRETE TIME-LIST
*******************************************************************************
Center geodetic : 0.00000000,0.00000000,0.0000000 {E-lon(deg),Lat(deg),Alt(km)}
Center cylindric: 0.00000000,0.00000000,0.0000000 {E-lon(deg),Dxy(km),Dz(km)}
Center radii    : (undefined)                                                  
Output units    : KM-S                                                         
Output format   : 02
Reference frame : ICRF/J2000.0                                                 
Output type     : GEOMETRIC cartesian states
Coordinate systm: Ecliptic and Mean Equinox of Reference Epoch                 
*******************************************************************************
JDCT ,   , X, Y, Z, VX, VY, VZ,
*******************************************************************************
$$SOE
2457222.500000000, A.D. 2015-Jul-19 00:00:00.0000, -6.682632133288003E+08, -1.316545060631491E+09,  4.483631943252116E+07,  7.222581111439539E+00, -3.898837461071782E+00,  8.646959974905392E-01,
$$EOE
*******************************************************************************
Coordinate system description:

  Ecliptic and Mean Equinox of Reference Epoch

    Reference epoch: J2000.0
    xy-plane: plane of the Earth's orbit at the reference epoch
    x-axis  : out along ascending node of instantaneous plane of the Earth's
              orbit and the Earth's mean equator at the reference epoch
    z-axis  : perpendicular to the xy-plane in the directional (+ or -) sense
              of Earth's north pole at the reference epoch.

Symbol meaning  

    JDCT     Epoch Julian Date, Coordinate Time
      X      x-component of position vector (km)                               
      Y      y-component of position vector (km)                               
      Z      z-component of position vector (km)                               
      VX     x-component of velocity vector (km/sec)                           
      VY     y-component of velocity vector (km/sec)                           
      VZ     z-component of velocity vector (km/sec)                           

Geometric states/elements have no aberration corrections applied.

 Computations by ...
     Solar System Dynamics Group, Horizons On-Line Ephemeris System
     4800 Oak Grove Drive, Jet Propulsion Laboratory
     Pasadena, CA  91109   USA
     Information: http://ssd.jpl.nasa.gov/
     Connect    : telnet://ssd.jpl.nasa.gov:6775  (via browser)
                  telnet ssd.jpl.nasa.gov 6775    (via command-line)
     Author     : Jon.Giorgini@jpl.nasa.gov
*******************************************************************************
